0 SL-8 R/B
1 10461U 77107B   13280.54023721  .00000092  00000-0  78116-4 0  4546
2 10461 082.9459 294.5324 0032163 323.6414 146.3858 13.76656698805205
0 SL-8 R/B
1 10461U 77107B   13282.65373788  .00000116  00000-0  10282-3 0  4558
2 10461 082.9457 292.9630 0032085 317.5339 181.0150 13.76657090805495
0 SL-8 R/B
1 10461U 77107B   13287.51819181  .00000074  00000-0  59637-4 0  4573
2 10461 082.9454 289.3504 0031927 303.3921 169.6168 13.76658100806165
0 SL-8 R/B
1 10461U 77107B   13289.55767508  .00000062  00000-0  47368-4 0  4580
2 10461 082.9456 287.8355 0031891 297.4681 197.4507 13.76658490806449
0 SL-8 R/B
1 10461U 77107B   13292.15639843  .00000071  00000-0  56552-4 0  4596
2 10461 082.9461 285.9053 0031847 289.9205 116.9241 13.76658534806808
0 SL-8 R/B
1 10461U 77107B   13294.50327911  .00000097  00000-0  83778-4 0  4607
2 10461 082.9463 284.1624 0031851 283.0154 228.3363 13.76658709807121
